{
  "norad_id": 67959,
  "name": "STARLINK-36834",
  "history": [
    {
      "epoch": "2026-03-28T16:20:41.321184",
      "apogee_km": 415.69852672443267,
      "perigee_km": 414.23529214234077,
      "latitude_deg": -38.21016760491706,
      "longitude_deg": -38.72075424017385,
      "semi_major_axis_km": 6793.103909433386,
      "eccentricity": 0.0001077,
      "inclination_deg": 43.0007,
      "raan_deg": 84.4731,
      "arg_perigee_deg": 266.0722,
      "mean_anomaly_deg": 94.0015,
      "mean_motion_rev_day": 15.50602127
    },
    {
      "epoch": "2026-03-29T01:37:14.041632",
      "apogee_km": 416.06481678065757,
      "perigee_km": 413.90732089399535,
      "latitude_deg": -36.06600172910926,
      "longitude_deg": -1.6177315202075988,
      "semi_major_axis_km": 6793.123068837326,
      "eccentricity": 0.0001588,
      "inclination_deg": 43.0014,
      "raan_deg": 82.2128,
      "arg_perigee_deg": 258.2596,
      "mean_anomaly_deg": 101.8086,
      "mean_motion_rev_day": 15.50595567
    }
  ]
}